#dP2023 11  7  0  0  0.00000000      96 __u+U IGS20 FIT  IAC
## 2287 172800.00000000   900.00000000 60255 0.0000000000000
+  118   C06C07C08C09C10C11C12C13C14C16C19C20C21C22C23C24C25
+        C26C27C28C29C30C32C33C34C35C36C37C38C39C40C41C42C43
+        C44C45C46E02E03E04E05E07E08E09E10E11E12E13E15E19E21
+        E24E25E26E27E30E31E33E34E36G01G02G03G04G05G06G07G08
+        G09G10G11G12G13G14G15G16G17G18G19G20G21G22G23G24G25
+        G26G27G28G29G30G31G32J02J03J04R01R02R03R04R05R07R08
+        R09R11R12R13R14R15R16R17R18R19R20R21R22R24R25R26  0
++         8  9  8  9  9  6  7  8  7  8  7  8  6  6  7  8  7
++         6  8  7  6  6  6  6  6  6  8  7 10  9  9  7  6  6
++         7  6  7  8  6  5  7  6  6  6  6  7  6  6  6  5  6
++         7  7  7  6  7  7  6  6  6  7  0  0  5  0  5  0  0
++         5  6  6  4  6  5  4  5  6  0  5  5  7  6  7  5  0
++         6  6  5  5  5  6  0  8  8  7  7  7  6  6  7  7  6
++         5  6  6  8  6  7  7  6  6  7  7  7  5  6  6  9  0
%c M  cc GPS ccc cccc cccc cccc cccc ccccc ccccc ccccc ccccc
%c cc cc ccc ccc cccc cccc cccc cccc ccccc ccccc ccccc ccccc
%f  0.0000000  0.000000000  0.00000000000  0.000000000000000
%f  0.0000000  0.000000000  0.00000000000  0.000000000000000
%i    0    0    0    0      0      0      0      0         0
%i    0    0    0    0      0      0      0      0         0
/* INFORMATION & ANALYSIS CENTER (IAC)      ULTRA-RAPID DATA
/* S/V CLOCKS ARE ALIGNED TO GNSS TIME                      
/* G:C1WC2W R:C1PC2P E:C1XC5X C:C2IC6I J:C1CC2S             
/* PCV:IGS20_2280 OL/AL:FES2004  NONE     YN ORB:CoN CLK:CoN
*  2023 11 07 19 45  0.00000000
PC06  -9718.278958  23181.393041 -33843.778292     12.622563
PC07 -15490.181444  38450.620964   7221.226717   -282.206698
PC08    580.777447  34639.543911  24187.668696    253.571643
PC09    -82.681163  24563.391493 -33810.224337    -59.454470
PC10  -7929.423232  38568.180286  14671.194539     -8.831901
PC11 -15256.698055  14111.803873  18688.841158    244.221107
PC12 -27265.451948   5207.339302   2853.400074    867.558812
PC13   4920.191752  37459.499360  19174.240204    379.275637
PC14 -12206.574449  24862.980580   3181.796016    738.783649
PC16 -14430.429490  21293.312646 -33229.530217   -164.067698
PC19   6081.289253 -26541.410978   6162.507888   -974.037741
PC20  15814.982166 -20485.717903 -10466.815726    136.736533
PC21 -16807.980380   1376.386685  22236.446433   -969.185693
PC22  -7662.059832 -17691.042669  20171.534554   -234.477273
PC23  16234.748952  22638.126609  -1732.018875   -826.419146
PC24 -13945.129754   8637.920663 -22589.982449    573.468157
PC25   2874.999712  22242.885990 -16631.560892    250.473704
PC26 -21555.421905  -8599.624346 -15488.064274   -202.934316
PC27  27329.120792    283.268781   5607.359597    224.793741
PC28  17498.198915  10909.723815  18814.373506    169.518715
PC29   4489.515262 -16490.888462 -22061.045238    198.279756
PC30  22985.467610 -11632.488876 -10710.658105     -7.912303
PC32  16777.482695  -1394.381068 -22250.025383   -533.466291
PC33  -5987.792993  26575.499124  -6035.321263   -946.569332
PC34 -22027.261925  12319.572904  11918.443114    298.351601
PC35 -18034.567306 -10240.369669 -18694.324159    507.985718
PC36  -1552.923817 -21930.107656  17198.317593   -144.519785
PC37  21448.396152   9804.988780  14950.138318   -878.641738
PC38  -6106.904791  30259.683898  28841.982555    116.226113
PC39 -18485.829295  20774.679259 -31737.848880     -5.574698
PC40 -22732.522956  34915.740747   5531.585539    -43.108784
PC41   7234.639585  18295.242894 -19744.108296   -871.399529
PC42 -16303.589358  19322.968909  11827.090752   -504.149041
PC43  -5541.647310  16597.737967  21736.423832     47.285933
PC44 -27308.789609    575.197889  -5792.512564    285.760951
PC45 -16514.722897 -22444.109627   1184.235694    -43.898450
PC46  13096.671479  -9550.798513  22709.845451    -97.968009
PE02   6954.276067 -25482.019027  13338.653501     76.522626
PE03  16460.704864 -21700.100558  11589.147329    -71.883690
PE04   2650.329211  18127.291039 -23251.513755   -252.239117
PE05  25895.876442 -12682.469335  -6690.507480 999999.999999
PE07 -19983.664064  -4209.550012  21421.486271    -86.574533
PE08  -2014.011012 -18285.726917  23183.002074   -173.477677
PE09  19831.967640   4204.202044 -21577.574192   -219.495983
PE10  21482.415037  17326.068645  10717.019243   -577.122169
PE11  26782.445364  12592.231434    431.560605   3182.436967
PE12  13379.609899  19099.528300  18228.485076   -767.705298
PE13 -26584.800706 -12961.673653  -1156.596128    -19.605621
PE15 -12964.388766 -19036.802753 -18581.055238    -67.607449
PE19 -18462.181071  21097.441886  -9509.165755  -1262.407754
PE21 -15582.655395   8516.839868 -23681.066288   -562.991731
PE24  15466.333186  14850.318166  20405.950544   -419.005163
PE25  15686.200233  -8075.810617  23772.904920     -3.668473
PE26 -24124.121625   1212.640956  17111.526892    274.238946
PE27 -15617.121907 -14233.114673 -20719.429340   -194.173303
PE30  -6155.455479 -28464.048449  -5256.752349   -643.522929
PE31   6458.685968  28346.178844   5595.125540     -9.615441
PE33  -8671.516985  13570.759692  24842.032000      1.881445
PE34   8040.227004 -13889.625343 -24871.620042    -76.690876
PE36  24453.677465   -587.953919 -16662.057911   -140.848560
PG01 -21078.126946 -15182.197002  -6685.804604    163.208614
PG02 -18153.078829 -15243.227089 -11672.375610   -531.978911
PG03 -11865.615388 -18102.545201  15318.271458    -29.335014
PG04 -15426.743686  -6960.092430  20507.470922 999999.999999
PG05   5965.392061  25611.097878  -3542.765431   -149.510047
PG06 -11593.187635  10233.854056  21679.555097 999999.999999
PG07 -24687.550229  -4462.681283  -8939.159920     19.499026
PG08  -7401.572710 -13562.005193 -21658.189236   -150.982908
PG09 -21801.763213   3128.709544  14797.498276 999999.999999
PG10  11269.833010 -14657.221609 -18749.243560    -60.473973
PG11    974.660490  16664.583887  20691.003453   -450.157111
PG12   9974.104249  20239.396926  13795.673512 999999.999999
PG13  -3677.392188  17263.092009 -19981.218040    592.767166
PG14 -13660.368006  10950.816896 -19901.005893    236.710393
PG15   9939.949814  12641.344010 -21617.722161 999999.999999
PG16    795.248831 -26252.700719   1210.415466 999999.999999
PG17 -22990.387610  13362.760081   -953.112236    723.446685
PG18  23889.349456   3033.836681 -11396.538194   -472.439002
PG19 -19491.979113  16268.256068   6971.010434 999999.999999
PG20   -224.203139  24975.055233   9349.844083 999999.999999
PG21 -15836.900504 -16169.425855 -14100.043728    144.860922
PG22 -10917.412372  18234.971746 -15656.754821     88.163390
PG23  14857.042678   -930.160496 -21988.777383     95.131627
PG24  18767.072982  15612.113395 -11354.909807   -365.745030
PG25      0.000000      0.000000      0.000000 999999.999999
PG26   4819.399454 -23204.474202  11487.872998    218.203254
PG27   6253.859870 -19168.598124 -17324.572445    -66.701354
PG28  13432.991522  -9936.201129  20622.875767 999999.999999
PG29  21836.821278  -1038.613582  15112.728234 999999.999999
PG30 -19890.089628   4512.766674 -17029.835307   -470.661274
PG31   4935.466918 -14515.305161  21465.288828   -225.512129
PG32  20567.156679 -16518.718532   2053.147700   -582.938934
PJ02 -20755.266134  30124.498114 -16164.416175     -0.112490
PJ03 -29113.841741  23225.112904  24919.789844     -7.478345
PJ04 -30736.220210  27925.230268  13332.423983     72.067591
PR01 -12559.201324    431.744529  22191.648993     69.323481
PR02 -16502.719209  15991.088449  11189.845455    -22.353212
PR03 -10684.878936  22369.517068  -6113.595157     88.591249
PR04    528.513359  16143.889862 -19727.337610    210.122500
PR05  11620.953503   1389.749607 -22655.608391    121.872226
PR07  10136.975645 -22290.469212   7073.900344     68.610834
PR08   -952.745252 -16007.742272  19875.413704    -73.196370
PR09   9978.031465  -5364.070503  22871.416854    151.962164
PR11 -11216.402925 -22808.925985   2255.836186   -211.541999
PR12 -15405.918752 -12655.163687 -15877.705392     33.186536
PR13 -10973.581859   2830.482695 -22866.500935    -41.044927
PR14   1278.525357  19257.429576 -16658.651187     25.521563
PR15  11675.836554  22663.211008   -785.597977     84.891706
PR16  15419.683172  12831.939699  15743.709381     20.408838
PR17  -6986.410095   9933.088738  22439.013377     32.822002
PR18  10988.455349   9979.074704  20753.211541    110.813278
PR19  22683.708099   6325.219267   9823.597593   -253.811005
PR20  22799.575904  -2927.229502 -11007.584854   -103.126954
PR21   6353.659846  -9906.376618 -22628.255797    -51.627340
PR22 -11724.550895 -10503.525500 -20043.320904     92.432945
PR24 -22365.267505   4322.058645  11479.829511    -31.256035
PR25   7496.332649  -9903.673147 -22273.906611     -6.358928
PR26   -572.568782 -16442.277226  19514.324978    -17.667716
EOF
